start=new Date('2023-01-13T00:00:00.000Z').valueOf();
sats=[{"LAUNCH_DATE":"2022-10-28","INCLINATION":"53.2171","REV_AT_EPOCH":"1233","CLASSIFICATION_TYPE":"U","ECCENTRICITY":"0.00014420","TIME_SYSTEM":"UTC","OBJECT_ID":"2022-141AP","EPOCH":"2023-01-12T22:00:00.999936","MEAN_ELEMENT_THEORY":"SGP4","GP_ID":"222847780","PERIAPSIS":"449.404","MEAN_MOTION":"15.38553309","SEMIMAJOR_AXIS":"6828.524","CENTER_NAME":"EARTH","NORAD_CAT_ID":"54194","FILE":"3741410","OBJECT_TYPE":"PAYLOAD","OBJECT_NAME":"STARLINK-5271","ARG_OF_PERICENTER":"45.7074","COUNTRY_CODE":"US","TLE_LINE2":"2 54194  53.2171 125.8518 0001442  45.7074 245.4606 15.38553309 12330","APOAPSIS":"451.373","PERIOD":"93.594","MEAN_ANOMALY":"245.4606","MEAN_MOTION_DDOT":"0.0000000000000","MEAN_MOTION_DOT":"-0.01145598","REF_FRAME":"TEME","ELEMENT_SET_NO":"999","SITE":"AFWTR","RCS_SIZE":"LARGE","EPHEMERIS_TYPE":"0","TLE_LINE1":"1 54194U 22141AP  23012.91667824 -.01145598  00000-0 -32494-1 0  9992","RA_OF_ASC_NODE":"125.8518","BSTAR":"-0.03249400000000","DECAY_DATE":null},{"RCS_SIZE":"LARGE","EPHEMERIS_TYPE":"0","TLE_LINE1":"1 54195U 22141AQ  23012.91667824 -.01205273  00000-0 -35380-1 0  9997","RA_OF_ASC_NODE":"125.8975","DECAY_DATE":null,"BSTAR":"-0.03538000000000","TLE_LINE2":"2 54195  53.2124 125.8975 0001154  75.9494 195.2343 15.37658915  1300","MEAN_MOTION_DDOT":"0.0000000000000","MEAN_ANOMALY":"195.2343","APOAPSIS":"453.824","PERIOD":"93.649","REF_FRAME":"TEME","MEAN_MOTION_DOT":"-0.01205273","SITE":"AFWTR","ELEMENT_SET_NO":"999","GP_ID":"222893215","PERIAPSIS":"452.248","SEMIMAJOR_AXIS":"6831.171","MEAN_MOTION":"15.37658915","NORAD_CAT_ID":"54195","FILE":"3742227","OBJECT_TYPE":"PAYLOAD","CENTER_NAME":"EARTH","ARG_OF_PERICENTER":"75.9494","COUNTRY_CODE":"US","OBJECT_NAME":"STARLINK-5258","LAUNCH_DATE":"2022-10-28","REV_AT_EPOCH":"130","INCLINATION":"53.2124","CLASSIFICATION_TYPE":"U","ECCENTRICITY":"0.00011540","TIME_SYSTEM":"UTC","OBJECT_ID":"2022-141AQ","EPOCH":"2023-01-12T22:00:00.999936","MEAN_ELEMENT_THEORY":"SGP4"},{"REV_AT_EPOCH":"130","LAUNCH_DATE":"2022-10-28","INCLINATION":"53.2125","CLASSIFICATION_TYPE":"U","OBJECT_ID":"2022-141AR","EPOCH":"2023-01-12T22:00:00.999936","MEAN_ELEMENT_THEORY":"SGP4","TIME_SYSTEM":"UTC","ECCENTRICITY":"0.00011470","PERIAPSIS":"447.697","MEAN_MOTION":"15.39198619","SEMIMAJOR_AXIS":"6826.615","GP_ID":"222893449","OBJECT_NAME":"STARLINK-5237","ARG_OF_PERICENTER":"83.5121","COUNTRY_CODE":"US","CENTER_NAME":"EARTH","NORAD_CAT_ID":"54196","FILE":"3742227","OBJECT_TYPE":"PAYLOAD","PERIOD":"93.555","APOAPSIS":"449.263","MEAN_ANOMALY":"220.3163","MEAN_MOTION_DDOT":"0.0000000000000","TLE_LINE2":"2 54196  53.2125 125.8309 0001147  83.5121 220.3163 15.39198619  1309","ELEMENT_SET_NO":"999","SITE":"AFWTR","MEAN_MOTION_DOT":"-0.01191843","REF_FRAME":"TEME","TLE_LINE1":"1 54196U 22141AR  23012.91667824 -.01191843  00000-0 -33222-1 0  9998","RCS_SIZE":"LARGE","EPHEMERIS_TYPE":"0","BSTAR":"-0.03322200000000","DECAY_DATE":null,"RA_OF_ASC_NODE":"125.8309"},{"REF_FRAME":"TEME","MEAN_MOTION_DOT":"-0.01205912","SITE":"AFWTR","ELEMENT_SET_NO":"999","TLE_LINE2":"2 54197  53.2137 125.8705 0001114  80.1236 204.5412 15.38277831  1301","MEAN_MOTION_DDOT":"0.0000000000000","APOAPSIS":"451.965","PERIOD":"93.611","MEAN_ANOMALY":"204.5412","RA_OF_ASC_NODE":"125.8705","DECAY_DATE":null,"BSTAR":"-0.03469000000000","EPHEMERIS_TYPE":"0","RCS_SIZE":"LARGE","TLE_LINE1":"1 54197U 22141AS  23012.91667824 -.01205912  00000-0 -34690-1 0  9992","TIME_SYSTEM":"UTC","ECCENTRICITY":"0.00011140","MEAN_ELEMENT_THEORY":"SGP4","EPOCH":"2023-01-12T22:00:00.999936","OBJECT_ID":"2022-141AS","CLASSIFICATION_TYPE":"U","LAUNCH_DATE":"2022-10-28","REV_AT_EPOCH":"130","INCLINATION":"53.2137","OBJECT_TYPE":"PAYLOAD","NORAD_CAT_ID":"54197","FILE":"3742227","CENTER_NAME":"EARTH","COUNTRY_CODE":"US","ARG_OF_PERICENTER":"80.1236","OBJECT_NAME":"STARLINK-5234","GP_ID":"222892269","SEMIMAJOR_AXIS":"6829.339","MEAN_MOTION":"15.38277831","PERIAPSIS":"450.443"},{"MEAN_MOTION":"15.39482169","SEMIMAJOR_AXIS":"6825.777","PERIAPSIS":"446.570","GP_ID":"222892506","OBJECT_NAME":"STARLINK-5246","COUNTRY_CODE":"US","ARG_OF_PERICENTER":"39.0775","CENTER_NAME":"EARTH","OBJECT_TYPE":"PAYLOAD","FILE":"3742227","NORAD_CAT_ID":"54198","CLASSIFICATION_TYPE":"U","REV_AT_EPOCH":"130","LAUNCH_DATE":"2022-10-28","INCLINATION":"53.2171","MEAN_ELEMENT_THEORY":"SGP4","EPOCH":"2023-01-12T22:00:00.999936","OBJECT_ID":"2022-141AT","ECCENTRICITY":"0.00015700","TIME_SYSTEM":"UTC","TLE_LINE1":"1 54198U 22141AT  23012.91667824 -.01146523  00000-0 -31540-1 0  9996","EPHEMERIS_TYPE":"0","RCS_SIZE":"LARGE","BSTAR":"-0.03154000000000","DECAY_DATE":null,"RA_OF_ASC_NODE":"125.8148","MEAN_ANOMALY":"270.8276","APOAPSIS":"448.713","PERIOD":"93.538","MEAN_MOTION_DDOT":"0.0000000000000","TLE_LINE2":"2 54198  53.2171 125.8148 0001570  39.0775 270.8276 15.39482169  1305","ELEMENT_SET_NO":"999","SITE":"AFWTR","MEAN_MOTION_DOT":"-0.01146523","REF_FRAME":"TEME"},{"TLE_LINE2":"2 54199  53.2129 125.8448 0001162  85.5741 212.0084 15.38889254  1308","MEAN_MOTION_DDOT":"0.0000000000000","APOAPSIS":"450.188","PERIOD":"93.574","MEAN_ANOMALY":"212.0084","REF_FRAME":"TEME","MEAN_MOTION_DOT":"-0.01191651","SITE":"AFWTR","ELEMENT_SET_NO":"999","RCS_SIZE":"LARGE","EPHEMERIS_TYPE":"0","TLE_LINE1":"1 54199U 22141AU  23012.91667824 -.01191651  00000-0 -33557-1 0  9999","RA_OF_ASC_NODE":"125.8448","DECAY_DATE":null,"BSTAR":"-0.03355700000000","REV_AT_EPOCH":"130","LAUNCH_DATE":"2022-10-28","INCLINATION":"53.2129","CLASSIFICATION_TYPE":"U","ECCENTRICITY":"0.00011620","TIME_SYSTEM":"UTC","OBJECT_ID":"2022-141AU","EPOCH":"2023-01-12T22:00:00.999936","MEAN_ELEMENT_THEORY":"SGP4","GP_ID":"222892743","PERIAPSIS":"448.601","MEAN_MOTION":"15.38889254","SEMIMAJOR_AXIS":"6827.530","FILE":"3742227","NORAD_CAT_ID":"54199","OBJECT_TYPE":"PAYLOAD","CENTER_NAME":"EARTH","ARG_OF_PERICENTER":"85.5741","COUNTRY_CODE":"US","OBJECT_NAME":"STARLINK-5244"},{"TLE_LINE2":"2 54200  53.2172 125.3960 0001693  37.3655  27.5477 15.39874455 12340","MEAN_ANOMALY":"27.5477","APOAPSIS":"447.638","PERIOD":"93.514","MEAN_MOTION_DDOT":"0.0000000000000","MEAN_MOTION_DOT":"-0.01143976","REF_FRAME":"TEME","ELEMENT_SET_NO":"999","SITE":"AFWTR","EPHEMERIS_TYPE":"0","RCS_SIZE":"LARGE","TLE_LINE1":"1 54200U 22141AV  23013.00001157 -.01143976  00000-0 -31056-1 0  9993","RA_OF_ASC_NODE":"125.3960","BSTAR":"-0.03105600000000","DECAY_DATE":null,"CLASSIFICATION_TYPE":"U","LAUNCH_DATE":"2022-10-28","REV_AT_EPOCH":"1234","INCLINATION":"53.2172","ECCENTRICITY":"0.00016930","TIME_SYSTEM":"UTC","MEAN_ELEMENT_THEORY":"SGP4","EPOCH":"2023-01-13T00:00:00.999648","OBJECT_ID":"2022-141AV","GP_ID":"222859245","MEAN_MOTION":"15.39874455","SEMIMAJOR_AXIS":"6824.617","PERIAPSIS":"445.327","CENTER_NAME":"EARTH","OBJECT_TYPE":"PAYLOAD","NORAD_CAT_ID":"54200","FILE":"3741894","OBJECT_NAME":"STARLINK-5250","COUNTRY_CODE":"US","ARG_OF_PERICENTER":"37.3655"},{"TLE_LINE1":"1 54201U 22141AW  23012.91667824 -.01147102  00000-0 -30622-1 0  9995","RCS_SIZE":"LARGE","EPHEMERIS_TYPE":"0","BSTAR":"-0.03062200000000","DECAY_DATE":null,"RA_OF_ASC_NODE":"125.7778","MEAN_ANOMALY":"284.6956","APOAPSIS":"445.944","PERIOD":"93.483","MEAN_MOTION_DDOT":"0.0000000000000","TLE_LINE2":"2 54201  53.2172 125.7778 0001441  43.6575 284.6956 15.40389391  1308","ELEMENT_SET_NO":"999","SITE":"AFWTR","MEAN_MOTION_DOT":"-0.01147102","REF_FRAME":"TEME","PERIAPSIS":"443.978","SEMIMAJOR_AXIS":"6823.096","MEAN_MOTION":"15.40389391","GP_ID":"222891793","OBJECT_NAME":"STARLINK-5199","ARG_OF_PERICENTER":"43.6575","COUNTRY_CODE":"US","CENTER_NAME":"EARTH","FILE":"3742227","NORAD_CAT_ID":"54201","OBJECT_TYPE":"PAYLOAD","LAUNCH_DATE":"2022-10-28","INCLINATION":"53.2172","REV_AT_EPOCH":"130","CLASSIFICATION_TYPE":"U","OBJECT_ID":"2022-141AW","MEAN_ELEMENT_THEORY":"SGP4","EPOCH":"2023-01-12T22:00:00.999936","TIME_SYSTEM":"UTC","ECCENTRICITY":"0.00014410"},{"GP_ID":"222892030","PERIAPSIS":"443.239","SEMIMAJOR_AXIS":"6822.104","MEAN_MOTION":"15.40725309","FILE":"3742227","NORAD_CAT_ID":"54202","OBJECT_TYPE":"PAYLOAD","CENTER_NAME":"EARTH","ARG_OF_PERICENTER":"82.5343","COUNTRY_CODE":"US","OBJECT_NAME":"STARLINK-5205","LAUNCH_DATE":"2022-10-28","REV_AT_EPOCH":"130","INCLINATION":"53.2143","CLASSIFICATION_TYPE":"U","ECCENTRICITY":"0.00010700","TIME_SYSTEM":"UTC","OBJECT_ID":"2022-141AX","MEAN_ELEMENT_THEORY":"SGP4","EPOCH":"2023-01-12T22:00:00.999936","RCS_SIZE":"LARGE","EPHEMERIS_TYPE":"0","TLE_LINE1":"1 54202U 22141AX  23012.91667824 -.01193429  00000-0 -31626-1 0  9994","RA_OF_ASC_NODE":"125.7730","DECAY_DATE":null,"BSTAR":"-0.03162600000000","TLE_LINE2":"2 54202  53.2143 125.7730 0001070  82.5343 251.3955 15.40725309  1301","MEAN_MOTION_DDOT":"0.0000000000000","APOAPSIS":"444.699","PERIOD":"93.462","MEAN_ANOMALY":"251.3955","REF_FRAME":"TEME","MEAN_MOTION_DOT":"-0.01193429","SITE":"AFWTR","ELEMENT_SET_NO":"999"},{"DECAY_DATE":null,"BSTAR":"-0.03257200000000","RA_OF_ASC_NODE":"125.8099","TLE_LINE1":"1 54203U 22141AY  23012.91667824 -.01192650  00000-0 -32572-1 0  9991","RCS_SIZE":"LARGE","EPHEMERIS_TYPE":"0","SITE":"AFWTR","ELEMENT_SET_NO":"999","REF_FRAME":"TEME","MEAN_MOTION_DOT":"-0.01192650","MEAN_MOTION_DDOT":"0.0000000000000","APOAPSIS":"447.411","PERIOD":"93.518","MEAN_ANOMALY":"238.7602","TLE_LINE2":"2 54203  53.2140 125.8099 0001117  77.1360 238.7602 15.39817967  1307","ARG_OF_PERICENTER":"77.1360","COUNTRY_CODE":"US","OBJECT_NAME":"STARLINK-5247","NORAD_CAT_ID":"54203","FILE":"3742227","OBJECT_TYPE":"PAYLOAD","CENTER_NAME":"EARTH","PERIAPSIS":"445.887","MEAN_MOTION":"15.39817967","SEMIMAJOR_AXIS":"6824.784","GP_ID":"222893216","OBJECT_ID":"2022-141AY","EPOCH":"2023-01-12T22:00:00.999936","MEAN_ELEMENT_THEORY":"SGP4","TIME_SYSTEM":"UTC","ECCENTRICITY":"0.00011170","REV_AT_EPOCH":"130","LAUNCH_DATE":"2022-10-28","INCLINATION":"53.2140","CLASSIFICATION_TYPE":"U"}];
